[{"OBJECT_NAME":"STARLINK-35696","OBJECT_ID":"2025-263E","EPOCH":"2026-03-09T03:08:59.387424","MEAN_MOTION":15.27607879,"ECCENTRICITY":0.00015752,"INCLINATION":43.0025,"RA_OF_ASC_NODE":353.837,"ARG_OF_PERICENTER":273.525,"MEAN_ANOMALY":86.5422,"EPHEMERIS_TYPE":0,"CLASSIFICATION_TYPE":"U","NORAD_CAT_ID":66489,"ELEMENT_SET_NO":999,"REV_AT_EPOCH":1881,"BSTAR":0.0020197984,"MEAN_MOTION_DOT":0.00055788,"MEAN_MOTION_DDOT":0},{"OBJECT_NAME":"STARLINK-35693","OBJECT_ID":"2025-263F","EPOCH":"2026-03-09T02:43:04.851840","MEAN_MOTION":15.27570779,"ECCENTRICITY":0.00015218,"INCLINATION":43.0037,"RA_OF_ASC_NODE":353.707,"ARG_OF_PERICENTER":279.7392,"MEAN_ANOMALY":80.3287,"EPHEMERIS_TYPE":0,"CLASSIFICATION_TYPE":"U","NORAD_CAT_ID":66490,"ELEMENT_SET_NO":999,"REV_AT_EPOCH":1881,"BSTAR":0.00097873932,"MEAN_MOTION_DOT":0.00026761,"MEAN_MOTION_DDOT":0},{"OBJECT_NAME":"STARLINK-35663","OBJECT_ID":"2025-263G","EPOCH":"2026-03-09T03:21:56.716128","MEAN_MOTION":15.27568398,"ECCENTRICITY":6.716e-5,"INCLINATION":43.0016,"RA_OF_ASC_NODE":353.895,"ARG_OF_PERICENTER":289.3507,"MEAN_ANOMALY":70.7272,"EPHEMERIS_TYPE":0,"CLASSIFICATION_TYPE":"U","NORAD_CAT_ID":66491,"ELEMENT_SET_NO":999,"REV_AT_EPOCH":1881,"BSTAR":0.000947502,"MEAN_MOTION_DOT":0.00025893,"MEAN_MOTION_DDOT":0},{"OBJECT_NAME":"STARLINK-35673","OBJECT_ID":"2025-263H","EPOCH":"2026-03-09T04:39:26.598240","MEAN_MOTION":15.27600433,"ECCENTRICITY":0.00016278,"INCLINATION":43.0002,"RA_OF_ASC_NODE":353.4564,"ARG_OF_PERICENTER":281.1193,"MEAN_ANOMALY":78.9475,"EPHEMERIS_TYPE":0,"CLASSIFICATION_TYPE":"U","NORAD_CAT_ID":66492,"ELEMENT_SET_NO":999,"REV_AT_EPOCH":1882,"BSTAR":0.0014748594,"MEAN_MOTION_DOT":0.00040572,"MEAN_MOTION_DDOT":0},{"OBJECT_NAME":"STARLINK-35597","OBJECT_ID":"2025-263J","EPOCH":"2026-03-09T03:40:25.375872","MEAN_MOTION":15.27605625,"ECCENTRICITY":0.00013106,"INCLINATION":43.0012,"RA_OF_ASC_NODE":354.0031,"ARG_OF_PERICENTER":261.5589,"MEAN_ANOMALY":98.5114,"EPHEMERIS_TYPE":0,"CLASSIFICATION_TYPE":"U","NORAD_CAT_ID":66493,"ELEMENT_SET_NO":999,"REV_AT_EPOCH":1881,"BSTAR":0.0015118781,"MEAN_MOTION_DOT":0.00041609,"MEAN_MOTION_DDOT":0},{"OBJECT_NAME":"STARLINK-35689","OBJECT_ID":"2025-263K","EPOCH":"2026-03-08T20:00:45.499680","MEAN_MOTION":15.27592341,"ECCENTRICITY":2.688e-5,"INCLINATION":42.9976,"RA_OF_ASC_NODE":355.9128,"ARG_OF_PERICENTER":198.9212,"MEAN_ANOMALY":161.1629,"EPHEMERIS_TYPE":0,"CLASSIFICATION_TYPE":"U","NORAD_CAT_ID":66494,"ELEMENT_SET_NO":999,"REV_AT_EPOCH":1876,"BSTAR":0.0012986677,"MEAN_MOTION_DOT":0.00035661,"MEAN_MOTION_DDOT":0},{"OBJECT_NAME":"STARLINK-35832","OBJECT_ID":"2025-263L","EPOCH":"2026-03-09T02:59:43.956384","MEAN_MOTION":15.27574085,"ECCENTRICITY":0.00016887,"INCLINATION":43.0046,"RA_OF_ASC_NODE":353.7896,"ARG_OF_PERICENTER":256.5212,"MEAN_ANOMALY":103.5452,"EPHEMERIS_TYPE":0,"CLASSIFICATION_TYPE":"U","NORAD_CAT_ID":66495,"ELEMENT_SET_NO":999,"REV_AT_EPOCH":1881,"BSTAR":0.0016967746,"MEAN_MOTION_DOT":0.00046717,"MEAN_MOTION_DDOT":0},{"OBJECT_NAME":"STARLINK-35909","OBJECT_ID":"2025-263M","EPOCH":"2026-03-09T03:33:02.133504","MEAN_MOTION":15.27576793,"ECCENTRICITY":0.0001837,"INCLINATION":43.0014,"RA_OF_ASC_NODE":353.9595,"ARG_OF_PERICENTER":274.0825,"MEAN_ANOMALY":85.9817,"EPHEMERIS_TYPE":0,"CLASSIFICATION_TYPE":"U","NORAD_CAT_ID":66496,"ELEMENT_SET_NO":999,"REV_AT_EPOCH":1881,"BSTAR":0.0013924103,"MEAN_MOTION_DOT":0.0003825,"MEAN_MOTION_DDOT":0},{"OBJECT_NAME":"STARLINK-35899","OBJECT_ID":"2025-263N","EPOCH":"2026-03-09T04:19:07.303296","MEAN_MOTION":15.27553031,"ECCENTRICITY":0.00016875,"INCLINATION":43.0043,"RA_OF_ASC_NODE":353.338,"ARG_OF_PERICENTER":249.5468,"MEAN_ANOMALY":110.5203,"EPHEMERIS_TYPE":0,"CLASSIFICATION_TYPE":"U","NORAD_CAT_ID":66497,"ELEMENT_SET_NO":999,"REV_AT_EPOCH":1882,"BSTAR":0.0011551446,"MEAN_MOTION_DOT":0.00031635,"MEAN_MOTION_DDOT":0},{"OBJECT_NAME":"STARLINK-35907","OBJECT_ID":"2025-263P","EPOCH":"2026-03-09T03:31:12.129024","MEAN_MOTION":15.27597703,"ECCENTRICITY":4.097e-5,"INCLINATION":42.9992,"RA_OF_ASC_NODE":353.9595,"ARG_OF_PERICENTER":309.0303,"MEAN_ANOMALY":51.0512,"EPHEMERIS_TYPE":0,"CLASSIFICATION_TYPE":"U","NORAD_CAT_ID":66498,"ELEMENT_SET_NO":999,"REV_AT_EPOCH":1881,"BSTAR":0.0014046499,"MEAN_MOTION_DOT":0.00038614,"MEAN_MOTION_DDOT":0},{"OBJECT_NAME":"STARLINK-35816","OBJECT_ID":"2025-263Q","EPOCH":"2026-03-09T03:45:59.379264","MEAN_MOTION":15.27576912,"ECCENTRICITY":0.00017652,"INCLINATION":43.003,"RA_OF_ASC_NODE":354.0351,"ARG_OF_PERICENTER":277.2488,"MEAN_ANOMALY":82.8163,"EPHEMERIS_TYPE":0,"CLASSIFICATION_TYPE":"U","NORAD_CAT_ID":66499,"ELEMENT_SET_NO":999,"REV_AT_EPOCH":1881,"BSTAR":0.0013877577,"MEAN_MOTION_DOT":0.0003812,"MEAN_MOTION_DDOT":0},{"OBJECT_NAME":"STARLINK-35894","OBJECT_ID":"2025-263R","EPOCH":"2026-03-09T03:06:26.613216","MEAN_MOTION":15.27600519,"ECCENTRICITY":0.00019745,"INCLINATION":43.0052,"RA_OF_ASC_NODE":357.2906,"ARG_OF_PERICENTER":261.2199,"MEAN_ANOMALY":98.843,"EPHEMERIS_TYPE":0,"CLASSIFICATION_TYPE":"U","NORAD_CAT_ID":66500,"ELEMENT_SET_NO":999,"REV_AT_EPOCH":1877,"BSTAR":0.0011503418,"MEAN_MOTION_DOT":0.00031549,"MEAN_MOTION_DDOT":0},{"OBJECT_NAME":"STARLINK-35897","OBJECT_ID":"2025-263S","EPOCH":"2026-03-09T04:48:41.635296","MEAN_MOTION":15.2760485,"ECCENTRICITY":0.00016606,"INCLINATION":42.9993,"RA_OF_ASC_NODE":353.503,"ARG_OF_PERICENTER":284.9559,"MEAN_ANOMALY":75.1109,"EPHEMERIS_TYPE":0,"CLASSIFICATION_TYPE":"U","NORAD_CAT_ID":66501,"ELEMENT_SET_NO":999,"REV_AT_EPOCH":1882,"BSTAR":0.0013319962,"MEAN_MOTION_DOT":0.00036602,"MEAN_MOTION_DDOT":0},{"OBJECT_NAME":"STARLINK-35922","OBJECT_ID":"2025-263T","EPOCH":"2026-03-09T05:16:26.739552","MEAN_MOTION":15.275785,"ECCENTRICITY":0.00033204,"INCLINATION":43.0093,"RA_OF_ASC_NODE":353.639,"ARG_OF_PERICENTER":259.7702,"MEAN_ANOMALY":100.2776,"EPHEMERIS_TYPE":0,"CLASSIFICATION_TYPE":"U","NORAD_CAT_ID":66502,"ELEMENT_SET_NO":999,"REV_AT_EPOCH":1882,"BSTAR":0.00087173129,"MEAN_MOTION_DOT":0.00023804,"MEAN_MOTION_DDOT":0},{"OBJECT_NAME":"STARLINK-35917","OBJECT_ID":"2025-263U","EPOCH":"2026-03-09T03:25:38.828928","MEAN_MOTION":15.27598056,"ECCENTRICITY":0.00011386,"INCLINATION":42.9988,"RA_OF_ASC_NODE":353.923,"ARG_OF_PERICENTER":294.6165,"MEAN_ANOMALY":65.4568,"EPHEMERIS_TYPE":0,"CLASSIFICATION_TYPE":"U","NORAD_CAT_ID":66503,"ELEMENT_SET_NO":999,"REV_AT_EPOCH":1881,"BSTAR":0.00098548218,"MEAN_MOTION_DOT":0.0002697,"MEAN_MOTION_DDOT":0},{"OBJECT_NAME":"STARLINK-35916","OBJECT_ID":"2025-263V","EPOCH":"2026-03-08T19:39:42.958080","MEAN_MOTION":15.27594257,"ECCENTRICITY":6.423e-5,"INCLINATION":42.9965,"RA_OF_ASC_NODE":359.2903,"ARG_OF_PERICENTER":328.5572,"MEAN_ANOMALY":31.5241,"EPHEMERIS_TYPE":0,"CLASSIFICATION_TYPE":"U","NORAD_CAT_ID":66504,"ELEMENT_SET_NO":999,"REV_AT_EPOCH":1872,"BSTAR":0.0011589109,"MEAN_MOTION_DOT":0.0003178,"MEAN_MOTION_DDOT":0}]
